NORAD_CAT_ID,OBJECT_NAME,OBJECT_TYPE,EPOCH,MEAN_MOTION,ECCENTRICITY,INCLINATION,RA_OF_ASC_NODE,ARG_OF_PERICENTER,MEAN_ANOMALY,BSTAR,MEAN_MOTION_DOT,MEAN_MOTION_DDOT,TLE_LINE0,TLE_LINE1,TLE_LINE2,SEMIMAJOR_AXIS,PERIOD,APOGEE,PERIGEE,DECAYED
54157.0,STARLINK-5290,PAYLOAD,2024-08-10 23:14:32,15.08860506,0.0001444,53.2178,78.5901,97.4924,262.6232,0.00088148,0.00013776,0.0,0 STARLINK-5290,1 54157U 22141A   24223.96843401  .00013776  00000-0  88148-3 0  9996,2 54157  53.2178  78.5901 0001444  97.4924 262.6232 15.08860506 98805,6917.818,95.436,540.682,538.684,0.0
54157.0,STARLINK-5290,PAYLOAD,2024-08-11 07:11:28,15.08850333,0.0001276,53.217,77.0996,95.7166,264.3972,0.00052266,8.042e-05,0.0,0 STARLINK-5290,1 54157U 22141A   24224.29963456  .00008042  00000-0  52266-3 0  9998,2 54157  53.2170  77.0996 0001276  95.7166 264.3972 15.08850333 98859,6917.849,95.437,540.597,538.831,0.0
54157.0,STARLINK-5290,PAYLOAD,2024-08-11 21:29:56,15.08853036,0.0001164,53.2169,74.4227,102.8209,257.2913,0.00041201,6.278e-05,0.0,0 STARLINK-5290,1 54157U 22141A   24224.89579041  .00006278  00000-0  41201-3 0  9993,2 54157  53.2169  74.4227 0001164 102.8209 257.2913 15.08853036 98948,6917.841,95.437,540.511,538.9,0.0
54157.0,STARLINK-5290,PAYLOAD,2024-08-12 07:02:14,15.08857048,0.0001551,53.2173,72.6354,69.8732,290.2427,0.00039469,6.002e-05,0.0,0 STARLINK-5290,1 54157U 22141A   24225.29322868  .00006002  00000-0  39469-3 0  9999,2 54157  53.2173  72.6354 0001551  69.8732 290.2427 15.08857048 99009,6917.828,95.436,540.766,538.62,0.0
54157.0,STARLINK-5290,PAYLOAD,2024-08-13 06:53:02,15.08797241,0.000297,53.2169,68.1778,87.6605,272.4727,-0.0013152,-0.00021136,0.0,0 STARLINK-5290,1 54157U 22141A   24226.28683986 -.00021136  00000-0 -13152-2 0  9997,2 54157  53.2169  68.1778 0002970  87.6605 272.4727 15.08797241 99156,6918.011,95.44,541.931,537.821,0.0
54157.0,STARLINK-5290,PAYLOAD,2024-08-13 19:36:09,15.08788875,0.0002157,53.216,65.8006,81.9781,278.1456,-0.0004209,-6.971e-05,0.0,0 STARLINK-5290,1 54157U 22141A   24226.81677482 -.00006971  00000-0 -42090-3 0  9994,2 54157  53.2160  65.8006 0002157  81.9781 278.1456 15.08788875 99238,6918.037,95.441,541.394,538.409,0.0
54157.0,STARLINK-5290,PAYLOAD,2024-08-14 06:43:52,15.08814059,0.0002469,53.2163,63.7149,102.7879,257.3389,0.00096404,0.00015077,0.0,0 STARLINK-5290,1 54157U 22141A   24227.28046510  .00015077  00000-0  96404-3 0  9991,2 54157  53.2163  63.7149 0002469 102.7879 257.3389 15.08814059 99308,6917.96,95.439,541.533,538.117,0.0
54157.0,STARLINK-5290,PAYLOAD,2024-08-14 19:26:56,15.08864743,0.0001365,53.217,61.3384,95.9298,264.185,0.0011079,0.000174,0.0,0 STARLINK-5290,1 54157U 22141A   24227.81037326  .00017400  00000-0  11079-2 0  9991,2 54157  53.2170  61.3384 0001365  95.9298 264.1850 15.08864743 99385,6917.805,95.436,540.614,538.725,0.0
54157.0,STARLINK-5290,PAYLOAD,2024-08-14 21:02:19,15.08872333,0.0001202,53.2158,61.0427,78.778,281.3347,0.0012874,0.00020278,0.0,0 STARLINK-5290,1 54157U 22141A   24227.87661037  .00020278  00000-0  12874-2 0  9990,2 54157  53.2158  61.0427 0001202  78.7780 281.3347 15.08872333 99398,6917.782,95.436,540.478,538.815,0.0
54157.0,STARLINK-5290,PAYLOAD,2024-08-15 06:34:37,15.08870034,0.0001257,53.2173,59.2596,78.1287,281.9847,0.00048579,7.458e-05,0.0,0 STARLINK-5290,1 54157U 22141A   24228.27404478  .00007458  00000-0  48579-3 0  9996,2 54157  53.2173  59.2596 0001257  78.1287 281.9847 15.08870034 99451,6917.789,95.436,540.523,538.784,0.0
54157.0,STARLINK-5290,PAYLOAD,2024-08-15 19:17:42,15.08866413,0.0002377,53.2154,56.8768,97.6937,262.4325,0.00063645,9.863e-05,0.0,0 STARLINK-5290,1 54157U 22141A   24228.80396164  .00009863  00000-0  63645-3 0  9990,2 54157  53.2154  56.8768 0002377  97.6937 262.4325 15.08866413 99536,6917.8,95.436,541.309,538.02,0.0
54157.0,STARLINK-5290,PAYLOAD,2024-08-15 20:53:05,15.08859899,0.0001247,53.2178,56.5829,86.9184,273.1951,0.00027645,4.117e-05,0.0,0 STARLINK-5290,1 54157U 22141A   24228.87020087  .00004117  00000-0  27645-3 0  9992,2 54157  53.2178  56.5829 0001247  86.9184 273.1951 15.08859899 99542,6917.82,95.436,540.547,538.822,0.0
54157.0,STARLINK-5290,PAYLOAD,2024-08-17 12:37:43,15.08861719,0.0001892,53.2173,49.1441,95.2054,264.9154,0.00088122,0.00013773,0.0,0 STARLINK-5290,1 54157U 22141A   24230.52620321  .00013773  00000-0  88122-3 0  9999,2 54157  53.2173  49.1441 0001892  95.2054 264.9154 15.08861719 99794,6917.814,95.436,540.988,538.37,0.0
54157.0,STARLINK-5290,PAYLOAD,2024-08-18 12:28:31,15.08846878,0.0003404,53.2178,44.688,318.4755,41.5978,0.00056177,8.666e-05,0.0,0 STARLINK-5290,1 54157U 22141A   24231.51980560  .00008666  00000-0  56177-3 0  9993,2 54157  53.2178  44.6880 0003404 318.4755  41.5978 15.08846878 99944,6917.859,95.437,542.079,537.37,0.0
54157.0,STARLINK-5290,PAYLOAD,2024-08-18 20:25:26,15.08846426,0.0001198,53.2169,43.1968,94.7187,265.3942,0.00029598,4.427e-05,0.0,0 STARLINK-5290,1 54157U 22141A   24231.85100060  .00004427  00000-0  29598-3 0  9997,2 54157  53.2169  43.1968 0001198  94.7187 265.3942 15.08846426 99997,6917.861,95.437,540.555,538.897,0.0
54157.0,STARLINK-5290,PAYLOAD,2024-08-19 04:22:22,15.08837876,0.0001862,53.2165,41.7102,90.8009,269.3197,0.00011022,1.466e-05,0.0,0 STARLINK-5290,1 54157U 22141A   24232.18220543  .00001466  00000-0  11022-3 0  9996,2 54157  53.2165  41.7102 0001862  90.8009 269.3197 15.08837876100049,6917.887,95.438,541.04,538.464,0.0
54157.0,STARLINK-5290,PAYLOAD,2024-08-20 10:34:42,15.08844319,0.0001841,53.2165,36.0607,97.4718,262.6483,4.0478e-05,3.56e-06,0.0,0 STARLINK-5290,1 54157U 22141A   24233.44076468  .00000356  00000-0  40478-4 0  9996,2 54157  53.2165  36.0607 0001841  97.4718 262.6483 15.08844319100238,6917.867,95.437,541.006,538.459,0.0
54157.0,STARLINK-5290,PAYLOAD,2024-08-21 10:25:29,15.0884166,0.000155,53.218,31.6026,85.9942,274.1227,0.00017752,2.538e-05,0.0,0 STARLINK-5290,1 54157U 22141A   24234.43436748  .00002538  00000-0  17752-3 0  9999,2 54157  53.2180  31.6026 0001550  85.9942 274.1227 15.08841660100385,6917.875,95.437,540.813,538.668,0.0
54157.0,STARLINK-5290,PAYLOAD,2024-08-21 15:11:38,15.08840467,0.0001369,53.2178,30.7104,83.9343,276.1805,0.0001534,2.154e-05,0.0,0 STARLINK-5290,1 54157U 22141A   24234.63308821  .00002154  00000-0  15340-3 0  9996,2 54157  53.2178  30.7104 0001369  83.9343 276.1805 15.08840467100412,6917.879,95.438,540.691,538.797,0.0
54157.0,STARLINK-5290,PAYLOAD,2024-08-21 16:47:01,15.08842,0.0001479,53.2184,30.4132,87.7947,272.3215,0.000139,1.925e-05,0.0,0 STARLINK-5290,1 54157U 22141A   24234.69932785  .00001925  00000-0  13900-3 0  9999,2 54157  53.2184  30.4132 0001479  87.7947 272.3215 15.08842000100420,6917.874,95.437,540.762,538.716,0.0
